this is a header line

it and lines like it should be ignored.

00001    3.34  0.12 K13B4  10.55761   72.29213   80.32762   10.59398  0.0757973  0.21415869   2.7668073  0 MPO286777  6502 105 1802-2014 0.82 M-v 30h MPCLINUX   0000      (1) Ceres              20140307
00002    4.13  0.11 K13B4 352.77905  309.93370  173.10236   34.83626  0.2315651  0.21350707   2.7724340  0 MPO286777  7656 102 1821-2014 0.58 M-v 28h MPCLINUX   0000      (2) Pallas             20140205
00003    5.33  0.32 K13B4 302.76827  248.34986  169.87780   12.98058  0.2552871  0.22587214   2.6703054  0 MPO286777  6632 101 1820-2013 2.27 M-v 38h MPCLINUX   0000      (3) Juno               20131115
00004    3.20  0.32 K13B4 272.21533  151.19946  103.85153    7.14052  0.0885024  0.27161523   2.3613841  0 MPO286777  6708  95 1821-2014 0.60 M-p 18h MPCLINUX   0000      (4) Vesta              20140308
00005    6.85  0.15 K13B4 164.81523  358.86197  141.59376    5.36779  0.1908724  0.23858683   2.5745722  0 MPO267705  1950  72 1845-2013 0.59 M-v 38h MPCLINUX   0000      (5) Astraea            20130814

00006    5.71  0.24 K13B4 284.88140  239.38413  138.70454   14.74726  0.2016517  0.26085676   2.4258726  0 MPO279512  5333  85 1848-2013 0.54 M-v 38h MPCLINUX   0007      (6) Hebe               20130606
00007    5.51  0.15 K13B4 325.23968  145.41508  259.63623    5.52443  0.2304304  0.26743307   2.3859388  0 MPO286777  4763  81 1848-2014 0.58 M-v 38h MPCLINUX   0000      (7) Iris               20140225
00008    6.49  0.28 K13B4 311.24514  285.36779  110.92228    5.88805  0.1561540  0.30174027   2.2014755  0 MPO286777  2046  82 1847-2013 0.67 M-v 38h MPCLINUX   0000      (8) Flora              20131025
00009    6.28  0.17 K13B4 102.79746    5.79847   68.94359    5.57522  0.1225868  0.26747065   2.3857153  0 MPO279512  2249  73 1849-2014 0.62 M-v 38h MPCLINUX   0000      (9) Metis              20140107
00010    5.43  0.15 K13B4 157.49911  312.71249  283.41694    3.84190  0.1159723  0.17737700   3.1371685  0 MPO286777  2692  86 1849-2014 0.59 M-v 38h MPCLINUX   0000     (10) Hygiea             20140304
